<?xml version='1.0' encoding='utf-8'?>
<gpx xmlns="http://www.topografix.com/GPX/1/1" version="1.1" creator="Locus">
  <metadata>
    <name>Gul-e-Daman A Block to PS Shahdara Town</name>
  </metadata>
  <trk>
    <name>Gul-e-Daman A Block to PS Shahdara Town</name>
    <trkseg>
      <trkpt lat="31.425613" lon="74.284529" />
      <trkpt lat="31.426195" lon="74.285087" />
      <trkpt lat="31.426558" lon="74.285437" />
      <trkpt lat="31.426962" lon="74.285840" />
      <trkpt lat="31.426996" lon="74.285871" />
      <trkpt lat="31.427109" lon="74.285973" />
      <trkpt lat="31.427222" lon="74.286074" />
      <trkpt lat="31.427344" lon="74.286170" />
      <trkpt lat="31.427435" lon="74.286232" />
      <trkpt lat="31.427702" lon="74.286396" />
      <trkpt lat="31.427798" lon="74.286441" />
      <trkpt lat="31.428494" lon="74.286798" />
      <trkpt lat="31.429347" lon="74.287205" />
      <trkpt lat="31.430380" lon="74.287737" />
      <trkpt lat="31.430860" lon="74.287953" />
      <trkpt lat="31.432100" lon="74.288579" />
      <trkpt lat="31.432562" lon="74.288813" />
      <trkpt lat="31.432996" lon="74.289062" />
      <trkpt lat="31.433174" lon="74.289149" />
      <trkpt lat="31.434373" lon="74.289806" />
      <trkpt lat="31.434429" lon="74.289835" />
      <trkpt lat="31.434979" lon="74.290117" />
      <trkpt lat="31.436565" lon="74.290957" />
      <trkpt lat="31.436706" lon="74.291032" />
      <trkpt lat="31.439941" lon="74.292708" />
      <trkpt lat="31.443008" lon="74.294315" />
      <trkpt lat="31.443087" lon="74.294356" />
      <trkpt lat="31.443157" lon="74.294389" />
      <trkpt lat="31.443245" lon="74.294436" />
      <trkpt lat="31.446906" lon="74.296414" />
      <trkpt lat="31.450240" lon="74.298145" />
      <trkpt lat="31.451341" lon="74.298757" />
      <trkpt lat="31.451451" lon="74.298813" />
      <trkpt lat="31.453024" lon="74.299664" />
      <trkpt lat="31.453558" lon="74.299952" />
      <trkpt lat="31.453717" lon="74.300034" />
      <trkpt lat="31.455053" lon="74.300739" />
      <trkpt lat="31.455281" lon="74.300857" />
      <trkpt lat="31.455373" lon="74.300908" />
      <trkpt lat="31.456153" lon="74.301318" />
      <trkpt lat="31.457465" lon="74.302011" />
      <trkpt lat="31.458971" lon="74.302791" />
      <trkpt lat="31.459052" lon="74.302833" />
      <trkpt lat="31.460589" lon="74.303654" />
      <trkpt lat="31.461455" lon="74.304097" />
      <trkpt lat="31.461745" lon="74.304244" />
      <trkpt lat="31.462895" lon="74.304864" />
      <trkpt lat="31.464057" lon="74.305466" />
      <trkpt lat="31.464187" lon="74.305530" />
      <trkpt lat="31.466114" lon="74.306535" />
      <trkpt lat="31.466535" lon="74.306754" />
      <trkpt lat="31.467105" lon="74.307043" />
      <trkpt lat="31.467392" lon="74.307203" />
      <trkpt lat="31.467364" lon="74.307277" />
      <trkpt lat="31.467095" lon="74.307949" />
      <trkpt lat="31.466842" lon="74.308583" />
      <trkpt lat="31.466870" lon="74.308716" />
      <trkpt lat="31.466878" lon="74.308742" />
      <trkpt lat="31.466899" lon="74.308774" />
      <trkpt lat="31.466919" lon="74.308790" />
      <trkpt lat="31.466961" lon="74.308802" />
      <trkpt lat="31.466980" lon="74.308801" />
      <trkpt lat="31.467061" lon="74.308783" />
      <trkpt lat="31.467454" lon="74.307750" />
      <trkpt lat="31.467673" lon="74.307151" />
      <trkpt lat="31.467730" lon="74.307010" />
      <trkpt lat="31.467776" lon="74.306900" />
      <trkpt lat="31.468169" lon="74.305873" />
      <trkpt lat="31.468282" lon="74.305608" />
      <trkpt lat="31.468418" lon="74.305272" />
      <trkpt lat="31.468572" lon="74.304921" />
      <trkpt lat="31.468652" lon="74.304769" />
      <trkpt lat="31.468768" lon="74.304593" />
      <trkpt lat="31.468913" lon="74.304405" />
      <trkpt lat="31.468998" lon="74.304296" />
      <trkpt lat="31.469090" lon="74.304212" />
      <trkpt lat="31.469211" lon="74.304103" />
      <trkpt lat="31.469283" lon="74.304047" />
      <trkpt lat="31.469498" lon="74.303921" />
      <trkpt lat="31.469656" lon="74.303844" />
      <trkpt lat="31.469765" lon="74.303797" />
      <trkpt lat="31.469915" lon="74.303740" />
      <trkpt lat="31.470215" lon="74.303633" />
      <trkpt lat="31.470647" lon="74.303497" />
      <trkpt lat="31.470713" lon="74.303476" />
      <trkpt lat="31.470921" lon="74.303366" />
      <trkpt lat="31.471059" lon="74.303320" />
      <trkpt lat="31.471215" lon="74.303263" />
      <trkpt lat="31.471374" lon="74.303203" />
      <trkpt lat="31.471575" lon="74.303140" />
      <trkpt lat="31.472522" lon="74.302841" />
      <trkpt lat="31.472852" lon="74.302740" />
      <trkpt lat="31.472986" lon="74.302754" />
      <trkpt lat="31.473397" lon="74.302616" />
      <trkpt lat="31.473837" lon="74.302477" />
      <trkpt lat="31.474001" lon="74.302389" />
      <trkpt lat="31.474261" lon="74.302293" />
      <trkpt lat="31.474704" lon="74.302139" />
      <trkpt lat="31.474823" lon="74.302103" />
      <trkpt lat="31.475116" lon="74.301997" />
      <trkpt lat="31.476145" lon="74.301645" />
      <trkpt lat="31.476928" lon="74.301348" />
      <trkpt lat="31.477346" lon="74.301197" />
      <trkpt lat="31.477608" lon="74.301103" />
      <trkpt lat="31.479097" lon="74.300573" />
      <trkpt lat="31.479451" lon="74.300445" />
      <trkpt lat="31.479587" lon="74.300378" />
      <trkpt lat="31.479768" lon="74.300229" />
      <trkpt lat="31.480313" lon="74.299655" />
      <trkpt lat="31.481264" lon="74.298764" />
      <trkpt lat="31.481341" lon="74.298698" />
      <trkpt lat="31.481669" lon="74.298359" />
      <trkpt lat="31.482000" lon="74.298049" />
      <trkpt lat="31.482336" lon="74.297699" />
      <trkpt lat="31.482466" lon="74.297557" />
      <trkpt lat="31.482580" lon="74.297420" />
      <trkpt lat="31.482865" lon="74.297155" />
      <trkpt lat="31.483157" lon="74.296863" />
      <trkpt lat="31.483850" lon="74.296223" />
      <trkpt lat="31.484916" lon="74.295169" />
      <trkpt lat="31.485820" lon="74.294272" />
      <trkpt lat="31.486322" lon="74.293772" />
      <trkpt lat="31.486453" lon="74.293753" />
      <trkpt lat="31.486564" lon="74.293693" />
      <trkpt lat="31.486629" lon="74.293670" />
      <trkpt lat="31.486705" lon="74.293673" />
      <trkpt lat="31.486778" lon="74.293688" />
      <trkpt lat="31.486866" lon="74.293747" />
      <trkpt lat="31.486914" lon="74.293797" />
      <trkpt lat="31.486955" lon="74.293858" />
      <trkpt lat="31.487729" lon="74.294954" />
      <trkpt lat="31.487996" lon="74.295265" />
      <trkpt lat="31.488211" lon="74.295418" />
      <trkpt lat="31.488650" lon="74.296016" />
      <trkpt lat="31.489211" lon="74.296831" />
      <trkpt lat="31.489414" lon="74.297112" />
      <trkpt lat="31.490049" lon="74.297939" />
      <trkpt lat="31.490328" lon="74.298280" />
      <trkpt lat="31.490908" lon="74.298988" />
      <trkpt lat="31.492322" lon="74.300665" />
      <trkpt lat="31.492962" lon="74.301373" />
      <trkpt lat="31.493557" lon="74.302031" />
      <trkpt lat="31.493758" lon="74.302229" />
      <trkpt lat="31.495256" lon="74.303805" />
      <trkpt lat="31.496767" lon="74.305232" />
      <trkpt lat="31.496889" lon="74.305346" />
      <trkpt lat="31.500259" lon="74.308506" />
      <trkpt lat="31.500708" lon="74.308943" />
      <trkpt lat="31.501211" lon="74.309433" />
      <trkpt lat="31.501513" lon="74.309711" />
      <trkpt lat="31.501930" lon="74.310117" />
      <trkpt lat="31.502369" lon="74.310542" />
      <trkpt lat="31.503656" lon="74.311800" />
      <trkpt lat="31.504059" lon="74.312161" />
      <trkpt lat="31.505328" lon="74.313321" />
      <trkpt lat="31.506484" lon="74.314392" />
      <trkpt lat="31.506822" lon="74.314692" />
      <trkpt lat="31.506979" lon="74.314842" />
      <trkpt lat="31.507735" lon="74.315565" />
      <trkpt lat="31.510138" lon="74.317805" />
      <trkpt lat="31.512339" lon="74.319958" />
      <trkpt lat="31.512671" lon="74.320263" />
      <trkpt lat="31.514244" lon="74.321653" />
      <trkpt lat="31.514929" lon="74.322291" />
      <trkpt lat="31.515628" lon="74.322986" />
      <trkpt lat="31.515702" lon="74.323062" />
      <trkpt lat="31.516297" lon="74.323622" />
      <trkpt lat="31.517528" lon="74.324748" />
      <trkpt lat="31.517735" lon="74.325100" />
      <trkpt lat="31.518245" lon="74.325722" />
      <trkpt lat="31.518599" lon="74.326111" />
      <trkpt lat="31.518808" lon="74.326356" />
      <trkpt lat="31.518981" lon="74.326540" />
      <trkpt lat="31.519277" lon="74.326855" />
      <trkpt lat="31.519498" lon="74.327097" />
      <trkpt lat="31.519612" lon="74.326941" />
      <trkpt lat="31.519907" lon="74.326505" />
      <trkpt lat="31.519967" lon="74.326428" />
      <trkpt lat="31.520078" lon="74.326305" />
      <trkpt lat="31.520126" lon="74.326197" />
      <trkpt lat="31.520414" lon="74.325824" />
      <trkpt lat="31.520618" lon="74.325617" />
      <trkpt lat="31.520855" lon="74.325399" />
      <trkpt lat="31.521006" lon="74.325286" />
      <trkpt lat="31.521417" lon="74.324996" />
      <trkpt lat="31.521729" lon="74.324838" />
      <trkpt lat="31.522041" lon="74.324698" />
      <trkpt lat="31.522899" lon="74.324379" />
      <trkpt lat="31.523640" lon="74.324131" />
      <trkpt lat="31.524377" lon="74.323912" />
      <trkpt lat="31.524426" lon="74.323891" />
      <trkpt lat="31.524615" lon="74.323763" />
      <trkpt lat="31.524932" lon="74.323672" />
      <trkpt lat="31.525552" lon="74.323472" />
      <trkpt lat="31.526613" lon="74.323128" />
      <trkpt lat="31.527114" lon="74.322961" />
      <trkpt lat="31.527185" lon="74.322937" />
      <trkpt lat="31.527374" lon="74.322875" />
      <trkpt lat="31.528028" lon="74.322657" />
      <trkpt lat="31.528120" lon="74.322623" />
      <trkpt lat="31.528300" lon="74.322557" />
      <trkpt lat="31.528739" lon="74.322395" />
      <trkpt lat="31.529487" lon="74.322180" />
      <trkpt lat="31.529843" lon="74.322052" />
      <trkpt lat="31.530086" lon="74.321980" />
      <trkpt lat="31.531351" lon="74.321560" />
      <trkpt lat="31.532130" lon="74.321301" />
      <trkpt lat="31.532647" lon="74.321148" />
      <trkpt lat="31.533296" lon="74.320931" />
      <trkpt lat="31.533574" lon="74.320844" />
      <trkpt lat="31.534280" lon="74.320627" />
      <trkpt lat="31.535297" lon="74.320293" />
      <trkpt lat="31.535607" lon="74.320182" />
      <trkpt lat="31.535783" lon="74.320133" />
      <trkpt lat="31.536135" lon="74.320025" />
      <trkpt lat="31.536512" lon="74.319925" />
      <trkpt lat="31.536787" lon="74.319850" />
      <trkpt lat="31.537013" lon="74.319789" />
      <trkpt lat="31.537316" lon="74.319699" />
      <trkpt lat="31.538556" lon="74.319386" />
      <trkpt lat="31.538771" lon="74.319333" />
      <trkpt lat="31.539330" lon="74.319180" />
      <trkpt lat="31.539598" lon="74.319123" />
      <trkpt lat="31.539747" lon="74.319091" />
      <trkpt lat="31.539954" lon="74.319032" />
      <trkpt lat="31.539979" lon="74.319027" />
      <trkpt lat="31.540076" lon="74.318996" />
      <trkpt lat="31.540164" lon="74.318963" />
      <trkpt lat="31.540289" lon="74.318907" />
      <trkpt lat="31.540595" lon="74.318759" />
      <trkpt lat="31.540810" lon="74.318640" />
      <trkpt lat="31.541359" lon="74.318337" />
      <trkpt lat="31.541749" lon="74.318145" />
      <trkpt lat="31.541968" lon="74.318032" />
      <trkpt lat="31.542163" lon="74.317928" />
      <trkpt lat="31.542489" lon="74.317762" />
      <trkpt lat="31.542887" lon="74.317577" />
      <trkpt lat="31.546097" lon="74.316273" />
      <trkpt lat="31.547236" lon="74.315812" />
      <trkpt lat="31.547442" lon="74.315740" />
      <trkpt lat="31.547663" lon="74.315690" />
      <trkpt lat="31.547876" lon="74.315627" />
      <trkpt lat="31.548166" lon="74.315527" />
      <trkpt lat="31.548701" lon="74.315292" />
      <trkpt lat="31.549147" lon="74.315108" />
      <trkpt lat="31.549342" lon="74.315034" />
      <trkpt lat="31.549769" lon="74.314847" />
      <trkpt lat="31.550108" lon="74.314685" />
      <trkpt lat="31.550910" lon="74.314315" />
      <trkpt lat="31.551365" lon="74.314090" />
      <trkpt lat="31.551530" lon="74.314013" />
      <trkpt lat="31.551698" lon="74.313910" />
      <trkpt lat="31.551833" lon="74.313777" />
      <trkpt lat="31.553050" lon="74.312581" />
      <trkpt lat="31.553244" lon="74.312365" />
      <trkpt lat="31.554364" lon="74.311115" />
      <trkpt lat="31.554591" lon="74.310859" />
      <trkpt lat="31.554694" lon="74.310755" />
      <trkpt lat="31.554783" lon="74.310679" />
      <trkpt lat="31.554842" lon="74.310643" />
      <trkpt lat="31.554950" lon="74.310594" />
      <trkpt lat="31.555071" lon="74.310540" />
      <trkpt lat="31.555275" lon="74.310456" />
      <trkpt lat="31.556041" lon="74.310140" />
      <trkpt lat="31.556308" lon="74.310031" />
      <trkpt lat="31.556481" lon="74.309961" />
      <trkpt lat="31.556597" lon="74.309914" />
      <trkpt lat="31.557243" lon="74.309653" />
      <trkpt lat="31.557688" lon="74.309484" />
      <trkpt lat="31.558113" lon="74.309339" />
      <trkpt lat="31.558407" lon="74.309268" />
      <trkpt lat="31.559008" lon="74.309143" />
      <trkpt lat="31.559658" lon="74.309012" />
      <trkpt lat="31.560050" lon="74.308934" />
      <trkpt lat="31.560394" lon="74.308877" />
      <trkpt lat="31.560590" lon="74.308837" />
      <trkpt lat="31.560749" lon="74.308800" />
      <trkpt lat="31.560809" lon="74.308765" />
      <trkpt lat="31.560840" lon="74.308724" />
      <trkpt lat="31.560862" lon="74.308675" />
      <trkpt lat="31.560876" lon="74.308614" />
      <trkpt lat="31.560883" lon="74.308533" />
      <trkpt lat="31.560887" lon="74.308350" />
      <trkpt lat="31.560900" lon="74.308200" />
      <trkpt lat="31.560918" lon="74.308115" />
      <trkpt lat="31.560961" lon="74.307988" />
      <trkpt lat="31.561013" lon="74.307878" />
      <trkpt lat="31.561174" lon="74.307645" />
      <trkpt lat="31.561835" lon="74.306662" />
      <trkpt lat="31.562313" lon="74.305894" />
      <trkpt lat="31.562601" lon="74.305426" />
      <trkpt lat="31.562747" lon="74.305255" />
      <trkpt lat="31.562923" lon="74.305115" />
      <trkpt lat="31.563024" lon="74.305067" />
      <trkpt lat="31.563097" lon="74.305051" />
      <trkpt lat="31.563396" lon="74.304974" />
      <trkpt lat="31.563771" lon="74.304898" />
      <trkpt lat="31.564233" lon="74.304840" />
      <trkpt lat="31.564305" lon="74.304831" />
      <trkpt lat="31.564938" lon="74.304786" />
      <trkpt lat="31.565130" lon="74.304721" />
      <trkpt lat="31.565232" lon="74.304678" />
      <trkpt lat="31.565366" lon="74.304604" />
      <trkpt lat="31.565516" lon="74.304499" />
      <trkpt lat="31.566384" lon="74.303778" />
      <trkpt lat="31.566487" lon="74.303720" />
      <trkpt lat="31.566577" lon="74.303691" />
      <trkpt lat="31.566653" lon="74.303674" />
      <trkpt lat="31.566723" lon="74.303668" />
      <trkpt lat="31.566835" lon="74.303670" />
      <trkpt lat="31.567121" lon="74.303798" />
      <trkpt lat="31.567812" lon="74.304069" />
      <trkpt lat="31.569079" lon="74.304576" />
      <trkpt lat="31.569175" lon="74.304609" />
      <trkpt lat="31.569629" lon="74.304776" />
      <trkpt lat="31.569742" lon="74.304818" />
      <trkpt lat="31.570291" lon="74.304999" />
      <trkpt lat="31.570946" lon="74.305240" />
      <trkpt lat="31.572347" lon="74.305764" />
      <trkpt lat="31.572433" lon="74.305795" />
      <trkpt lat="31.572464" lon="74.305807" />
      <trkpt lat="31.572853" lon="74.305940" />
      <trkpt lat="31.573012" lon="74.305978" />
      <trkpt lat="31.573094" lon="74.305998" />
      <trkpt lat="31.573199" lon="74.306017" />
      <trkpt lat="31.573292" lon="74.306042" />
      <trkpt lat="31.574059" lon="74.306356" />
      <trkpt lat="31.574652" lon="74.306577" />
      <trkpt lat="31.574818" lon="74.306639" />
      <trkpt lat="31.575044" lon="74.306723" />
      <trkpt lat="31.575072" lon="74.306733" />
      <trkpt lat="31.575122" lon="74.306752" />
      <trkpt lat="31.575623" lon="74.306937" />
      <trkpt lat="31.576724" lon="74.307384" />
      <trkpt lat="31.576926" lon="74.307447" />
      <trkpt lat="31.577835" lon="74.307785" />
      <trkpt lat="31.578218" lon="74.307934" />
      <trkpt lat="31.578266" lon="74.307957" />
      <trkpt lat="31.578450" lon="74.308015" />
      <trkpt lat="31.578552" lon="74.308023" />
      <trkpt lat="31.578632" lon="74.308023" />
      <trkpt lat="31.578700" lon="74.308015" />
      <trkpt lat="31.578776" lon="74.307964" />
      <trkpt lat="31.578820" lon="74.307915" />
      <trkpt lat="31.578865" lon="74.307850" />
      <trkpt lat="31.578902" lon="74.307769" />
      <trkpt lat="31.578922" lon="74.307675" />
      <trkpt lat="31.578939" lon="74.307487" />
      <trkpt lat="31.578958" lon="74.307318" />
      <trkpt lat="31.578978" lon="74.307174" />
      <trkpt lat="31.579008" lon="74.307078" />
      <trkpt lat="31.579085" lon="74.306924" />
      <trkpt lat="31.579145" lon="74.306811" />
      <trkpt lat="31.579245" lon="74.306641" />
      <trkpt lat="31.579290" lon="74.306572" />
      <trkpt lat="31.579403" lon="74.306471" />
      <trkpt lat="31.579460" lon="74.306421" />
      <trkpt lat="31.579476" lon="74.306406" />
      <trkpt lat="31.579625" lon="74.306315" />
      <trkpt lat="31.579679" lon="74.306288" />
      <trkpt lat="31.579756" lon="74.306266" />
      <trkpt lat="31.579839" lon="74.306262" />
      <trkpt lat="31.579878" lon="74.306256" />
      <trkpt lat="31.580040" lon="74.306261" />
      <trkpt lat="31.580520" lon="74.306352" />
      <trkpt lat="31.581256" lon="74.306496" />
      <trkpt lat="31.582175" lon="74.306624" />
      <trkpt lat="31.582761" lon="74.306691" />
      <trkpt lat="31.583031" lon="74.306721" />
      <trkpt lat="31.583763" lon="74.306804" />
      <trkpt lat="31.585161" lon="74.306893" />
      <trkpt lat="31.585596" lon="74.306894" />
      <trkpt lat="31.585980" lon="74.306895" />
      <trkpt lat="31.586241" lon="74.306873" />
      <trkpt lat="31.587080" lon="74.306811" />
      <trkpt lat="31.587200" lon="74.306842" />
      <trkpt lat="31.587518" lon="74.306851" />
      <trkpt lat="31.587655" lon="74.306848" />
      <trkpt lat="31.588786" lon="74.306870" />
      <trkpt lat="31.588932" lon="74.306886" />
      <trkpt lat="31.589056" lon="74.306911" />
      <trkpt lat="31.589413" lon="74.306996" />
      <trkpt lat="31.589729" lon="74.307050" />
      <trkpt lat="31.589962" lon="74.307047" />
      <trkpt lat="31.590186" lon="74.307017" />
      <trkpt lat="31.590316" lon="74.306950" />
      <trkpt lat="31.590428" lon="74.306883" />
      <trkpt lat="31.590588" lon="74.306784" />
      <trkpt lat="31.590669" lon="74.306715" />
      <trkpt lat="31.590755" lon="74.306636" />
      <trkpt lat="31.591359" lon="74.305784" />
      <trkpt lat="31.591522" lon="74.305544" />
      <trkpt lat="31.591944" lon="74.304921" />
      <trkpt lat="31.592171" lon="74.304609" />
      <trkpt lat="31.592411" lon="74.304289" />
      <trkpt lat="31.592640" lon="74.303975" />
      <trkpt lat="31.592905" lon="74.303660" />
      <trkpt lat="31.593113" lon="74.303436" />
      <trkpt lat="31.593297" lon="74.303279" />
      <trkpt lat="31.594141" lon="74.302589" />
      <trkpt lat="31.594250" lon="74.302555" />
      <trkpt lat="31.594473" lon="74.302356" />
      <trkpt lat="31.596621" lon="74.300531" />
      <trkpt lat="31.596906" lon="74.300290" />
      <trkpt lat="31.597180" lon="74.300060" />
      <trkpt lat="31.597516" lon="74.299792" />
      <trkpt lat="31.597979" lon="74.299405" />
      <trkpt lat="31.598517" lon="74.298969" />
      <trkpt lat="31.598621" lon="74.298899" />
      <trkpt lat="31.598702" lon="74.298857" />
      <trkpt lat="31.598804" lon="74.298814" />
      <trkpt lat="31.598875" lon="74.298789" />
      <trkpt lat="31.598983" lon="74.298763" />
      <trkpt lat="31.599092" lon="74.298748" />
      <trkpt lat="31.599243" lon="74.298743" />
      <trkpt lat="31.599332" lon="74.298750" />
      <trkpt lat="31.599457" lon="74.298772" />
      <trkpt lat="31.599540" lon="74.298794" />
      <trkpt lat="31.599709" lon="74.298854" />
      <trkpt lat="31.600041" lon="74.298992" />
      <trkpt lat="31.600563" lon="74.299204" />
      <trkpt lat="31.601015" lon="74.299395" />
      <trkpt lat="31.601214" lon="74.299477" />
      <trkpt lat="31.601710" lon="74.299683" />
      <trkpt lat="31.602284" lon="74.299851" />
      <trkpt lat="31.602346" lon="74.299864" />
      <trkpt lat="31.602539" lon="74.299886" />
      <trkpt lat="31.602868" lon="74.299885" />
      <trkpt lat="31.603177" lon="74.299841" />
      <trkpt lat="31.603465" lon="74.299783" />
      <trkpt lat="31.603682" lon="74.299700" />
      <trkpt lat="31.603848" lon="74.299619" />
      <trkpt lat="31.603994" lon="74.299546" />
      <trkpt lat="31.604129" lon="74.299469" />
      <trkpt lat="31.604233" lon="74.299398" />
      <trkpt lat="31.604367" lon="74.299301" />
      <trkpt lat="31.605543" lon="74.298329" />
      <trkpt lat="31.606308" lon="74.297635" />
      <trkpt lat="31.606491" lon="74.297472" />
      <trkpt lat="31.610115" lon="74.294477" />
      <trkpt lat="31.610205" lon="74.294401" />
      <trkpt lat="31.610439" lon="74.294217" />
      <trkpt lat="31.610873" lon="74.293946" />
      <trkpt lat="31.611413" lon="74.293583" />
      <trkpt lat="31.611703" lon="74.293332" />
      <trkpt lat="31.612098" lon="74.293028" />
      <trkpt lat="31.612475" lon="74.292786" />
      <trkpt lat="31.612832" lon="74.292599" />
      <trkpt lat="31.613431" lon="74.292144" />
      <trkpt lat="31.613831" lon="74.291806" />
      <trkpt lat="31.614107" lon="74.291609" />
      <trkpt lat="31.614265" lon="74.291524" />
      <trkpt lat="31.614437" lon="74.291557" />
      <trkpt lat="31.614588" lon="74.291516" />
      <trkpt lat="31.614766" lon="74.291428" />
      <trkpt lat="31.614872" lon="74.291389" />
      <trkpt lat="31.614973" lon="74.291352" />
      <trkpt lat="31.615234" lon="74.291282" />
      <trkpt lat="31.615830" lon="74.291162" />
      <trkpt lat="31.616606" lon="74.291021" />
      <trkpt lat="31.616771" lon="74.290995" />
      <trkpt lat="31.616941" lon="74.290954" />
      <trkpt lat="31.617253" lon="74.290867" />
      <trkpt lat="31.617330" lon="74.290849" />
      <trkpt lat="31.617406" lon="74.290897" />
      <trkpt lat="31.617491" lon="74.290935" />
      <trkpt lat="31.617612" lon="74.290965" />
      <trkpt lat="31.617760" lon="74.290939" />
      <trkpt lat="31.617901" lon="74.290884" />
      <trkpt lat="31.618089" lon="74.290786" />
      <trkpt lat="31.618170" lon="74.290732" />
      <trkpt lat="31.618241" lon="74.290684" />
      <trkpt lat="31.618288" lon="74.290602" />
      <trkpt lat="31.618312" lon="74.290543" />
      <trkpt lat="31.618325" lon="74.290489" />
      <trkpt lat="31.618330" lon="74.290391" />
      <trkpt lat="31.618318" lon="74.290260" />
      <trkpt lat="31.618289" lon="74.290165" />
      <trkpt lat="31.618226" lon="74.290039" />
      <trkpt lat="31.618217" lon="74.289942" />
      <trkpt lat="31.618209" lon="74.289835" />
      <trkpt lat="31.618225" lon="74.289596" />
      <trkpt lat="31.618230" lon="74.289474" />
      <trkpt lat="31.618243" lon="74.289241" />
      <trkpt lat="31.618224" lon="74.288871" />
      <trkpt lat="31.618153" lon="74.288162" />
      <trkpt lat="31.618336" lon="74.288125" />
      <trkpt lat="31.618372" lon="74.288101" />
      <trkpt lat="31.618400" lon="74.288066" />
      <trkpt lat="31.618441" lon="74.287986" />
      <trkpt lat="31.618458" lon="74.287935" />
      <trkpt lat="31.618571" lon="74.287632" />
      <trkpt lat="31.618590" lon="74.287594" />
      <trkpt lat="31.618720" lon="74.287471" />
      <trkpt lat="31.618933" lon="74.287301" />
      <trkpt lat="31.619006" lon="74.287421" />
      <trkpt lat="31.619121" lon="74.287591" />
      <trkpt lat="31.619161" lon="74.287643" />
      <trkpt lat="31.619561" lon="74.288082" />
      <trkpt lat="31.619601" lon="74.288132" />
      <trkpt lat="31.619729" lon="74.288319" />
      <trkpt lat="31.619812" lon="74.288520" />
      <trkpt lat="31.620062" lon="74.288329" />
      <trkpt lat="31.620085" lon="74.288330" />
      <trkpt lat="31.620108" lon="74.288352" />
      <trkpt lat="31.620221" lon="74.288485" />
      <trkpt lat="31.620235" lon="74.288526" />
      <trkpt lat="31.620251" lon="74.288584" />
      <trkpt lat="31.620273" lon="74.288694" />
      <trkpt lat="31.620725" lon="74.288583" />
      <trkpt lat="31.620894" lon="74.289535" />
      <trkpt lat="31.620669" lon="74.289584" />
    </trkseg>
  </trk>
</gpx>