<?xml version='1.0' encoding='utf-8'?>
<gpx xmlns="http://www.topografix.com/GPX/1/1" version="1.1" creator="Locus – iC3 jurisdiction conversion">
  <metadata>
    <name>PS Shahdara Town Jurisdiction Boundary Patrol</name>
  </metadata>
  <trk>
    <name>PS Shahdara Town Jurisdiction Boundary Patrol</name>
    <trkseg>
      <trkpt lat="31.62066000" lon="74.28953000" />
      <trkpt lat="31.62066880" lon="74.28975117" />
      <trkpt lat="31.61850679" lon="74.29020604" />
      <trkpt lat="31.61807965" lon="74.29032883" />
      <trkpt lat="31.61760269" lon="74.29054414" />
      <trkpt lat="31.61732128" lon="74.29062762" />
      <trkpt lat="31.61681384" lon="74.29073349" />
      <trkpt lat="31.61499474" lon="74.29098354" />
      <trkpt lat="31.61460450" lon="74.29105257" />
      <trkpt lat="31.61342772" lon="74.29185503" />
      <trkpt lat="31.61306570" lon="74.29211785" />
      <trkpt lat="31.61251135" lon="74.29251689" />
      <trkpt lat="31.61196283" lon="74.29294036" />
      <trkpt lat="31.61169263" lon="74.29315219" />
      <trkpt lat="31.61154328" lon="74.29329449" />
      <trkpt lat="31.61128622" lon="74.29353172" />
      <trkpt lat="31.61103780" lon="74.29373575" />
      <trkpt lat="31.61008265" lon="74.29447779" />
      <trkpt lat="31.60873666" lon="74.29560780" />
      <trkpt lat="31.60814374" lon="74.29611341" />
      <trkpt lat="31.60748869" lon="74.29667183" />
      <trkpt lat="31.60715533" lon="74.29695732" />
      <trkpt lat="31.60678246" lon="74.29726716" />
      <trkpt lat="31.60665843" lon="74.29736716" />
      <trkpt lat="31.60659536" lon="74.29741780" />
      <trkpt lat="31.60654859" lon="74.29746407" />
      <trkpt lat="31.60700833" lon="74.29774021" />
      <trkpt lat="31.60737198" lon="74.29797650" />
      <trkpt lat="31.60787783" lon="74.29830718" />
      <trkpt lat="31.61006618" lon="74.30047690" />
      <trkpt lat="31.61046137" lon="74.30087394" />
      <trkpt lat="31.61062506" lon="74.30103594" />
      <trkpt lat="31.61106863" lon="74.30188662" />
      <trkpt lat="31.61115434" lon="74.30240862" />
      <trkpt lat="31.61121864" lon="74.30279034" />
      <trkpt lat="31.61119027" lon="74.30365204" />
      <trkpt lat="31.61129980" lon="74.30442382" />
      <trkpt lat="31.61132701" lon="74.30513319" />
      <trkpt lat="31.61134738" lon="74.30564841" />
      <trkpt lat="31.61137006" lon="74.30630559" />
      <trkpt lat="31.61178839" lon="74.30736682" />
      <trkpt lat="31.61216729" lon="74.30844112" />
      <trkpt lat="31.61300880" lon="74.31065915" />
      <trkpt lat="31.61366928" lon="74.31251547" />
      <trkpt lat="31.61458193" lon="74.31463897" />
      <trkpt lat="31.61498128" lon="74.31555889" />
      <trkpt lat="31.61535834" lon="74.31640819" />
      <trkpt lat="31.61606496" lon="74.31757152" />
      <trkpt lat="31.61640118" lon="74.31872937" />
      <trkpt lat="31.61739952" lon="74.31937235" />
      <trkpt lat="31.61765467" lon="74.31994876" />
      <trkpt lat="31.61872602" lon="74.32095916" />
      <trkpt lat="31.61912940" lon="74.32147961" />
      <trkpt lat="31.61943722" lon="74.32164824" />
      <trkpt lat="31.61944837" lon="74.32191305" />
      <trkpt lat="31.62006295" lon="74.32214380" />
      <trkpt lat="31.62076962" lon="74.32345074" />
      <trkpt lat="31.62087501" lon="74.32364865" />
      <trkpt lat="31.62097702" lon="74.32384214" />
      <trkpt lat="31.62108595" lon="74.32404823" />
      <trkpt lat="31.62116150" lon="74.32418978" />
      <trkpt lat="31.62121178" lon="74.32428272" />
      <trkpt lat="31.62126139" lon="74.32437037" />
      <trkpt lat="31.62129498" lon="74.32443031" />
      <trkpt lat="31.62140970" lon="74.32464649" />
      <trkpt lat="31.62143208" lon="74.32469080" />
      <trkpt lat="31.62145548" lon="74.32473561" />
      <trkpt lat="31.62149196" lon="74.32480053" />
      <trkpt lat="31.62150676" lon="74.32482488" />
      <trkpt lat="31.62153900" lon="74.32488232" />
      <trkpt lat="31.62155508" lon="74.32491202" />
      <trkpt lat="31.62157423" lon="74.32494650" />
      <trkpt lat="31.62175481" lon="74.32527640" />
      <trkpt lat="31.62177310" lon="74.32531054" />
      <trkpt lat="31.62178807" lon="74.32533777" />
      <trkpt lat="31.62185704" lon="74.32541638" />
      <trkpt lat="31.62192437" lon="74.32550901" />
      <trkpt lat="31.62196422" lon="74.32556011" />
      <trkpt lat="31.62203315" lon="74.32564468" />
      <trkpt lat="31.62229433" lon="74.32596001" />
      <trkpt lat="31.62246606" lon="74.32654752" />
      <trkpt lat="31.62278474" lon="74.32758639" />
      <trkpt lat="31.62283391" lon="74.32775542" />
      <trkpt lat="31.62289890" lon="74.32796380" />
      <trkpt lat="31.62295436" lon="74.32815326" />
      <trkpt lat="31.62300742" lon="74.32834025" />
      <trkpt lat="31.62304819" lon="74.32849422" />
      <trkpt lat="31.62309223" lon="74.32863798" />
      <trkpt lat="31.62343520" lon="74.32921672" />
      <trkpt lat="31.62371347" lon="74.32976836" />
      <trkpt lat="31.62448048" lon="74.33108394" />
      <trkpt lat="31.62473407" lon="74.33154531" />
      <trkpt lat="31.62662854" lon="74.33312110" />
      <trkpt lat="31.62870330" lon="74.33544643" />
      <trkpt lat="31.62952304" lon="74.33727202" />
      <trkpt lat="31.63008986" lon="74.33851074" />
      <trkpt lat="31.63197092" lon="74.34234561" />
      <trkpt lat="31.63202204" lon="74.34269365" />
      <trkpt lat="31.63352844" lon="74.34314045" />
      <trkpt lat="31.63547879" lon="74.34296445" />
      <trkpt lat="31.63765458" lon="74.34303417" />
      <trkpt lat="31.63843446" lon="74.34372181" />
      <trkpt lat="31.63900297" lon="74.34481134" />
      <trkpt lat="31.63954554" lon="74.34653522" />
      <trkpt lat="31.63968044" lon="74.34690799" />
      <trkpt lat="31.64015128" lon="74.34913903" />
      <trkpt lat="31.64084901" lon="74.35013650" />
      <trkpt lat="31.64143450" lon="74.35033068" />
      <trkpt lat="31.64182685" lon="74.35048042" />
      <trkpt lat="31.64265413" lon="74.35077540" />
      <trkpt lat="31.64269282" lon="74.35077707" />
      <trkpt lat="31.64452518" lon="74.35099012" />
      <trkpt lat="31.64615999" lon="74.35117716" />
      <trkpt lat="31.64973943" lon="74.35165675" />
      <trkpt lat="31.65070436" lon="74.35241495" />
      <trkpt lat="31.65260645" lon="74.35298680" />
      <trkpt lat="31.65266264" lon="74.35254045" />
      <trkpt lat="31.65301678" lon="74.35011428" />
      <trkpt lat="31.65396803" lon="74.34603865" />
      <trkpt lat="31.65439139" lon="74.34147074" />
      <trkpt lat="31.65413120" lon="74.34063142" />
      <trkpt lat="31.65353179" lon="74.33865415" />
      <trkpt lat="31.65345910" lon="74.33830314" />
      <trkpt lat="31.65338857" lon="74.33796674" />
      <trkpt lat="31.65295363" lon="74.33595651" />
      <trkpt lat="31.65189027" lon="74.33430343" />
      <trkpt lat="31.65201356" lon="74.33124018" />
      <trkpt lat="31.65223319" lon="74.32852651" />
      <trkpt lat="31.65247355" lon="74.32609427" />
      <trkpt lat="31.65245925" lon="74.32412573" />
      <trkpt lat="31.65245223" lon="74.32245206" />
      <trkpt lat="31.65244939" lon="74.31957038" />
      <trkpt lat="31.65267177" lon="74.31957101" />
      <trkpt lat="31.65269584" lon="74.31896066" />
      <trkpt lat="31.65268083" lon="74.31853558" />
      <trkpt lat="31.65251500" lon="74.31793669" />
      <trkpt lat="31.65238461" lon="74.31766234" />
      <trkpt lat="31.65220669" lon="74.31704286" />
      <trkpt lat="31.65203596" lon="74.31661325" />
      <trkpt lat="31.65184407" lon="74.31596701" />
      <trkpt lat="31.65140126" lon="74.31565928" />
      <trkpt lat="31.65137654" lon="74.31498089" />
      <trkpt lat="31.65169822" lon="74.31478251" />
      <trkpt lat="31.65314398" lon="74.31548179" />
      <trkpt lat="31.65518515" lon="74.31648914" />
      <trkpt lat="31.65658516" lon="74.31721505" />
      <trkpt lat="31.65709281" lon="74.31746149" />
      <trkpt lat="31.65740339" lon="74.31772278" />
      <trkpt lat="31.65759201" lon="74.31696494" />
      <trkpt lat="31.65768337" lon="74.31656448" />
      <trkpt lat="31.65776677" lon="74.31627224" />
      <trkpt lat="31.65783513" lon="74.31592027" />
      <trkpt lat="31.65809415" lon="74.31493398" />
      <trkpt lat="31.65842337" lon="74.31466173" />
      <trkpt lat="31.65840942" lon="74.31383187" />
      <trkpt lat="31.65843943" lon="74.31157673" />
      <trkpt lat="31.65848761" lon="74.30966772" />
      <trkpt lat="31.65931147" lon="74.30883907" />
      <trkpt lat="31.65980588" lon="74.30818755" />
      <trkpt lat="31.65998866" lon="74.30740483" />
      <trkpt lat="31.66015632" lon="74.30693634" />
      <trkpt lat="31.66018712" lon="74.30683939" />
      <trkpt lat="31.66028911" lon="74.30626087" />
      <trkpt lat="31.66008400" lon="74.30403700" />
      <trkpt lat="31.65932600" lon="74.30218800" />
      <trkpt lat="31.65779700" lon="74.30066900" />
      <trkpt lat="31.65312589" lon="74.29689566" />
      <trkpt lat="31.65322805" lon="74.29273114" />
      <trkpt lat="31.65275433" lon="74.29036182" />
      <trkpt lat="31.65277560" lon="74.28967902" />
      <trkpt lat="31.65278396" lon="74.28864141" />
      <trkpt lat="31.65280748" lon="74.28791673" />
      <trkpt lat="31.65282716" lon="74.28751057" />
      <trkpt lat="31.65201599" lon="74.28733100" />
      <trkpt lat="31.65115576" lon="74.28715799" />
      <trkpt lat="31.65066553" lon="74.28636575" />
      <trkpt lat="31.65051558" lon="74.28579314" />
      <trkpt lat="31.65043537" lon="74.28505432" />
      <trkpt lat="31.64963784" lon="74.28493089" />
      <trkpt lat="31.64879175" lon="74.28498387" />
      <trkpt lat="31.64873249" lon="74.28445980" />
      <trkpt lat="31.64870716" lon="74.28396972" />
      <trkpt lat="31.64816015" lon="74.28405489" />
      <trkpt lat="31.64765340" lon="74.28416230" />
      <trkpt lat="31.64684891" lon="74.28434448" />
      <trkpt lat="31.64553404" lon="74.28459318" />
      <trkpt lat="31.64460554" lon="74.28474006" />
      <trkpt lat="31.64309610" lon="74.28508022" />
      <trkpt lat="31.64125968" lon="74.28548124" />
      <trkpt lat="31.64018921" lon="74.28574323" />
      <trkpt lat="31.63882132" lon="74.28602558" />
      <trkpt lat="31.63800271" lon="74.28619250" />
      <trkpt lat="31.63222105" lon="74.28742753" />
      <trkpt lat="31.62905951" lon="74.28808116" />
      <trkpt lat="31.62768962" lon="74.28837096" />
      <trkpt lat="31.62285016" lon="74.28929672" />
      <trkpt lat="31.62066880" lon="74.28975117" />
      <trkpt lat="31.62066000" lon="74.28953000" />
    </trkseg>
  </trk>
</gpx>