<?xml version='1.0' encoding='utf-8'?>
<gpx xmlns="http://www.topografix.com/GPX/1/1" version="1.1" creator="Locus">
  <metadata>
    <name>PS Shahdara Town Road Patrol Loop</name>
  </metadata>
  <trk>
    <name>PS Shahdara Town Road Patrol Loop</name>
    <trkseg>
      <trkpt lat="31.620671" lon="74.289584" />
      <trkpt lat="31.620894" lon="74.289535" />
      <trkpt lat="31.621016" lon="74.289514" />
      <trkpt lat="31.621110" lon="74.289525" />
      <trkpt lat="31.621334" lon="74.289556" />
      <trkpt lat="31.622236" lon="74.289349" />
      <trkpt lat="31.622775" lon="74.289227" />
      <trkpt lat="31.623612" lon="74.289039" />
      <trkpt lat="31.623820" lon="74.289029" />
      <trkpt lat="31.624018" lon="74.289019" />
      <trkpt lat="31.624059" lon="74.289011" />
      <trkpt lat="31.627621" lon="74.288288" />
      <trkpt lat="31.629338" lon="74.287927" />
      <trkpt lat="31.635906" lon="74.286539" />
      <trkpt lat="31.638123" lon="74.286085" />
      <trkpt lat="31.638734" lon="74.285957" />
      <trkpt lat="31.638885" lon="74.285927" />
      <trkpt lat="31.638892" lon="74.286024" />
      <trkpt lat="31.638366" lon="74.286138" />
      <trkpt lat="31.638458" lon="74.286216" />
      <trkpt lat="31.638567" lon="74.286251" />
      <trkpt lat="31.638964" lon="74.286250" />
      <trkpt lat="31.639006" lon="74.286261" />
      <trkpt lat="31.639042" lon="74.286291" />
      <trkpt lat="31.639061" lon="74.286352" />
      <trkpt lat="31.639076" lon="74.286760" />
      <trkpt lat="31.639088" lon="74.286890" />
      <trkpt lat="31.639133" lon="74.287461" />
      <trkpt lat="31.639150" lon="74.287825" />
      <trkpt lat="31.638565" lon="74.287905" />
      <trkpt lat="31.638501" lon="74.288035" />
      <trkpt lat="31.638348" lon="74.288264" />
      <trkpt lat="31.638335" lon="74.288282" />
      <trkpt lat="31.638224" lon="74.288432" />
      <trkpt lat="31.637626" lon="74.289283" />
      <trkpt lat="31.637274" lon="74.289664" />
      <trkpt lat="31.636879" lon="74.290093" />
      <trkpt lat="31.636617" lon="74.290575" />
      <trkpt lat="31.636073" lon="74.291216" />
      <trkpt lat="31.635766" lon="74.291688" />
      <trkpt lat="31.635724" lon="74.291747" />
      <trkpt lat="31.635699" lon="74.291780" />
      <trkpt lat="31.635636" lon="74.291837" />
      <trkpt lat="31.635555" lon="74.291911" />
      <trkpt lat="31.635162" lon="74.292217" />
      <trkpt lat="31.634774" lon="74.292548" />
      <trkpt lat="31.634279" lon="74.293038" />
      <trkpt lat="31.633987" lon="74.293249" />
      <trkpt lat="31.633787" lon="74.293395" />
      <trkpt lat="31.633686" lon="74.293482" />
      <trkpt lat="31.633371" lon="74.293826" />
      <trkpt lat="31.633233" lon="74.294014" />
      <trkpt lat="31.633117" lon="74.294354" />
      <trkpt lat="31.632933" lon="74.294977" />
      <trkpt lat="31.632790" lon="74.295355" />
      <trkpt lat="31.632684" lon="74.295647" />
      <trkpt lat="31.632547" lon="74.295884" />
      <trkpt lat="31.632333" lon="74.296315" />
      <trkpt lat="31.632143" lon="74.296495" />
      <trkpt lat="31.631876" lon="74.296635" />
      <trkpt lat="31.631662" lon="74.296693" />
      <trkpt lat="31.631595" lon="74.296835" />
      <trkpt lat="31.631511" lon="74.297015" />
      <trkpt lat="31.631488" lon="74.297063" />
      <trkpt lat="31.631488" lon="74.297305" />
      <trkpt lat="31.631483" lon="74.297382" />
      <trkpt lat="31.631465" lon="74.297670" />
      <trkpt lat="31.631458" lon="74.297715" />
      <trkpt lat="31.631438" lon="74.297830" />
      <trkpt lat="31.631388" lon="74.298136" />
      <trkpt lat="31.631333" lon="74.298335" />
      <trkpt lat="31.631283" lon="74.298533" />
      <trkpt lat="31.631237" lon="74.298699" />
      <trkpt lat="31.631182" lon="74.298850" />
      <trkpt lat="31.631137" lon="74.298989" />
      <trkpt lat="31.631105" lon="74.299064" />
      <trkpt lat="31.631433" lon="74.299037" />
      <trkpt lat="31.631716" lon="74.299014" />
      <trkpt lat="31.632194" lon="74.298984" />
      <trkpt lat="31.632229" lon="74.300006" />
      <trkpt lat="31.632201" lon="74.300035" />
      <trkpt lat="31.632822" lon="74.301275" />
      <trkpt lat="31.633183" lon="74.301628" />
      <trkpt lat="31.633280" lon="74.301777" />
      <trkpt lat="31.633597" lon="74.302263" />
      <trkpt lat="31.633819" lon="74.302669" />
      <trkpt lat="31.633848" lon="74.302782" />
      <trkpt lat="31.633905" lon="74.302754" />
      <trkpt lat="31.634359" lon="74.302526" />
      <trkpt lat="31.634516" lon="74.302388" />
      <trkpt lat="31.634533" lon="74.302369" />
      <trkpt lat="31.634723" lon="74.302161" />
      <trkpt lat="31.634899" lon="74.301963" />
      <trkpt lat="31.635209" lon="74.301664" />
      <trkpt lat="31.635353" lon="74.301525" />
      <trkpt lat="31.635670" lon="74.301094" />
      <trkpt lat="31.636038" lon="74.300477" />
      <trkpt lat="31.636099" lon="74.300352" />
      <trkpt lat="31.636261" lon="74.300018" />
      <trkpt lat="31.636287" lon="74.299965" />
      <trkpt lat="31.636452" lon="74.299634" />
      <trkpt lat="31.636575" lon="74.299386" />
      <trkpt lat="31.636633" lon="74.299270" />
      <trkpt lat="31.636906" lon="74.298851" />
      <trkpt lat="31.637062" lon="74.298639" />
      <trkpt lat="31.637197" lon="74.298456" />
      <trkpt lat="31.637361" lon="74.298268" />
      <trkpt lat="31.637533" lon="74.298154" />
      <trkpt lat="31.637909" lon="74.297923" />
      <trkpt lat="31.638304" lon="74.297715" />
      <trkpt lat="31.638501" lon="74.297594" />
      <trkpt lat="31.639004" lon="74.297181" />
      <trkpt lat="31.639474" lon="74.296755" />
      <trkpt lat="31.639788" lon="74.296542" />
      <trkpt lat="31.640068" lon="74.296330" />
      <trkpt lat="31.640640" lon="74.295817" />
      <trkpt lat="31.641107" lon="74.295470" />
      <trkpt lat="31.641616" lon="74.295128" />
      <trkpt lat="31.642127" lon="74.294821" />
      <trkpt lat="31.642165" lon="74.294801" />
      <trkpt lat="31.642204" lon="74.294705" />
      <trkpt lat="31.642206" lon="74.294535" />
      <trkpt lat="31.642210" lon="74.293941" />
      <trkpt lat="31.642207" lon="74.292773" />
      <trkpt lat="31.642236" lon="74.291207" />
      <trkpt lat="31.642238" lon="74.291042" />
      <trkpt lat="31.642240" lon="74.290889" />
      <trkpt lat="31.641128" lon="74.289735" />
      <trkpt lat="31.640981" lon="74.289535" />
      <trkpt lat="31.640866" lon="74.289337" />
      <trkpt lat="31.640694" lon="74.288848" />
      <trkpt lat="31.640635" lon="74.288456" />
      <trkpt lat="31.640634" lon="74.288333" />
      <trkpt lat="31.640608" lon="74.288086" />
      <trkpt lat="31.640592" lon="74.287744" />
      <trkpt lat="31.640551" lon="74.286995" />
      <trkpt lat="31.640604" lon="74.287055" />
      <trkpt lat="31.640644" lon="74.287067" />
      <trkpt lat="31.640736" lon="74.287083" />
      <trkpt lat="31.640805" lon="74.287092" />
      <trkpt lat="31.641038" lon="74.287162" />
      <trkpt lat="31.641064" lon="74.287170" />
      <trkpt lat="31.641276" lon="74.287239" />
      <trkpt lat="31.641614" lon="74.287351" />
      <trkpt lat="31.642173" lon="74.287514" />
      <trkpt lat="31.642450" lon="74.287611" />
      <trkpt lat="31.643605" lon="74.287961" />
      <trkpt lat="31.644180" lon="74.288191" />
      <trkpt lat="31.644322" lon="74.288191" />
      <trkpt lat="31.644555" lon="74.288061" />
      <trkpt lat="31.644546" lon="74.288384" />
      <trkpt lat="31.644520" lon="74.289290" />
      <trkpt lat="31.644554" lon="74.289779" />
      <trkpt lat="31.644646" lon="74.290249" />
      <trkpt lat="31.644720" lon="74.290598" />
      <trkpt lat="31.644954" lon="74.291473" />
      <trkpt lat="31.645222" lon="74.292189" />
      <trkpt lat="31.645509" lon="74.292864" />
      <trkpt lat="31.645772" lon="74.293345" />
      <trkpt lat="31.645944" lon="74.293584" />
      <trkpt lat="31.646137" lon="74.293851" />
      <trkpt lat="31.646481" lon="74.294272" />
      <trkpt lat="31.646548" lon="74.294344" />
      <trkpt lat="31.647501" lon="74.295372" />
      <trkpt lat="31.648115" lon="74.296029" />
      <trkpt lat="31.648290" lon="74.296216" />
      <trkpt lat="31.649009" lon="74.296984" />
      <trkpt lat="31.650418" lon="74.298425" />
      <trkpt lat="31.651622" lon="74.299652" />
      <trkpt lat="31.652188" lon="74.300238" />
      <trkpt lat="31.652615" lon="74.300679" />
      <trkpt lat="31.653254" lon="74.301363" />
      <trkpt lat="31.654412" lon="74.302600" />
      <trkpt lat="31.654543" lon="74.302740" />
      <trkpt lat="31.654598" lon="74.302797" />
      <trkpt lat="31.655599" lon="74.303833" />
      <trkpt lat="31.656383" lon="74.304660" />
      <trkpt lat="31.656757" lon="74.305019" />
      <trkpt lat="31.657523" lon="74.305796" />
      <trkpt lat="31.656757" lon="74.305019" />
      <trkpt lat="31.656383" lon="74.304660" />
      <trkpt lat="31.655599" lon="74.303833" />
      <trkpt lat="31.654598" lon="74.302797" />
      <trkpt lat="31.654543" lon="74.302740" />
      <trkpt lat="31.654412" lon="74.302600" />
      <trkpt lat="31.653254" lon="74.301363" />
      <trkpt lat="31.652615" lon="74.300679" />
      <trkpt lat="31.652188" lon="74.300238" />
      <trkpt lat="31.651622" lon="74.299652" />
      <trkpt lat="31.651477" lon="74.300095" />
      <trkpt lat="31.651409" lon="74.300249" />
      <trkpt lat="31.651377" lon="74.300293" />
      <trkpt lat="31.651303" lon="74.300353" />
      <trkpt lat="31.651266" lon="74.300383" />
      <trkpt lat="31.649747" lon="74.301404" />
      <trkpt lat="31.648656" lon="74.302196" />
      <trkpt lat="31.648235" lon="74.302505" />
      <trkpt lat="31.647226" lon="74.303237" />
      <trkpt lat="31.646651" lon="74.303583" />
      <trkpt lat="31.645983" lon="74.304026" />
      <trkpt lat="31.645472" lon="74.304365" />
      <trkpt lat="31.645391" lon="74.304419" />
      <trkpt lat="31.644780" lon="74.304819" />
      <trkpt lat="31.644652" lon="74.304903" />
      <trkpt lat="31.644483" lon="74.305014" />
      <trkpt lat="31.643901" lon="74.305395" />
      <trkpt lat="31.642579" lon="74.306263" />
      <trkpt lat="31.642252" lon="74.306519" />
      <trkpt lat="31.641329" lon="74.307060" />
      <trkpt lat="31.641190" lon="74.307163" />
      <trkpt lat="31.640723" lon="74.307507" />
      <trkpt lat="31.639709" lon="74.308307" />
      <trkpt lat="31.639290" lon="74.308683" />
      <trkpt lat="31.638929" lon="74.309028" />
      <trkpt lat="31.638541" lon="74.309400" />
      <trkpt lat="31.638407" lon="74.309522" />
      <trkpt lat="31.638297" lon="74.309627" />
      <trkpt lat="31.637836" lon="74.309990" />
      <trkpt lat="31.637588" lon="74.310185" />
      <trkpt lat="31.636833" lon="74.310733" />
      <trkpt lat="31.635659" lon="74.311575" />
      <trkpt lat="31.634489" lon="74.312442" />
      <trkpt lat="31.634121" lon="74.312735" />
      <trkpt lat="31.634016" lon="74.312775" />
      <trkpt lat="31.633547" lon="74.312957" />
      <trkpt lat="31.632158" lon="74.313455" />
      <trkpt lat="31.631777" lon="74.313588" />
      <trkpt lat="31.631201" lon="74.313790" />
      <trkpt lat="31.631062" lon="74.313738" />
      <trkpt lat="31.630195" lon="74.313134" />
      <trkpt lat="31.629410" lon="74.312588" />
      <trkpt lat="31.629362" lon="74.312553" />
      <trkpt lat="31.629106" lon="74.312368" />
      <trkpt lat="31.628538" lon="74.311952" />
      <trkpt lat="31.628415" lon="74.311863" />
      <trkpt lat="31.628211" lon="74.311660" />
      <trkpt lat="31.627812" lon="74.311227" />
      <trkpt lat="31.627196" lon="74.310571" />
      <trkpt lat="31.626777" lon="74.310097" />
      <trkpt lat="31.626673" lon="74.309979" />
      <trkpt lat="31.626011" lon="74.309230" />
      <trkpt lat="31.625581" lon="74.308743" />
      <trkpt lat="31.624459" lon="74.307464" />
      <trkpt lat="31.624434" lon="74.307436" />
      <trkpt lat="31.624360" lon="74.307352" />
      <trkpt lat="31.624142" lon="74.307155" />
      <trkpt lat="31.624075" lon="74.307095" />
      <trkpt lat="31.623885" lon="74.306949" />
      <trkpt lat="31.623717" lon="74.306854" />
      <trkpt lat="31.623498" lon="74.306786" />
      <trkpt lat="31.622533" lon="74.306666" />
      <trkpt lat="31.622204" lon="74.306614" />
      <trkpt lat="31.621663" lon="74.306511" />
      <trkpt lat="31.621123" lon="74.306374" />
      <trkpt lat="31.620786" lon="74.306271" />
      <trkpt lat="31.620509" lon="74.306134" />
      <trkpt lat="31.620385" lon="74.306061" />
      <trkpt lat="31.619661" lon="74.305636" />
      <trkpt lat="31.619435" lon="74.305492" />
      <trkpt lat="31.618652" lon="74.305018" />
      <trkpt lat="31.618353" lon="74.304795" />
      <trkpt lat="31.618186" lon="74.304569" />
      <trkpt lat="31.618102" lon="74.304454" />
      <trkpt lat="31.618075" lon="74.304417" />
      <trkpt lat="31.617680" lon="74.303636" />
      <trkpt lat="31.617544" lon="74.303369" />
      <trkpt lat="31.617415" lon="74.303116" />
      <trkpt lat="31.616891" lon="74.302088" />
      <trkpt lat="31.616328" lon="74.300984" />
      <trkpt lat="31.615971" lon="74.300274" />
      <trkpt lat="31.615929" lon="74.300184" />
      <trkpt lat="31.615926" lon="74.300104" />
      <trkpt lat="31.615934" lon="74.300044" />
      <trkpt lat="31.615952" lon="74.299962" />
      <trkpt lat="31.616002" lon="74.299874" />
      <trkpt lat="31.616106" lon="74.299753" />
      <trkpt lat="31.616708" lon="74.299224" />
      <trkpt lat="31.617169" lon="74.298907" />
      <trkpt lat="31.617433" lon="74.298782" />
      <trkpt lat="31.617779" lon="74.298679" />
      <trkpt lat="31.618069" lon="74.298551" />
      <trkpt lat="31.618222" lon="74.298411" />
      <trkpt lat="31.618286" lon="74.298324" />
      <trkpt lat="31.618309" lon="74.298204" />
      <trkpt lat="31.618296" lon="74.298117" />
      <trkpt lat="31.618104" lon="74.298010" />
      <trkpt lat="31.618065" lon="74.297984" />
      <trkpt lat="31.617863" lon="74.297842" />
      <trkpt lat="31.617598" lon="74.297657" />
      <trkpt lat="31.616882" lon="74.297174" />
      <trkpt lat="31.616817" lon="74.297230" />
      <trkpt lat="31.615559" lon="74.298264" />
      <trkpt lat="31.615138" lon="74.298609" />
      <trkpt lat="31.615012" lon="74.298717" />
      <trkpt lat="31.614943" lon="74.298622" />
      <trkpt lat="31.614844" lon="74.298536" />
      <trkpt lat="31.614358" lon="74.298292" />
      <trkpt lat="31.613632" lon="74.297917" />
      <trkpt lat="31.612882" lon="74.297479" />
      <trkpt lat="31.612252" lon="74.297136" />
      <trkpt lat="31.612021" lon="74.296949" />
      <trkpt lat="31.611715" lon="74.296738" />
      <trkpt lat="31.611519" lon="74.296570" />
      <trkpt lat="31.611500" lon="74.296549" />
      <trkpt lat="31.611411" lon="74.296452" />
      <trkpt lat="31.611380" lon="74.296402" />
      <trkpt lat="31.611411" lon="74.296452" />
      <trkpt lat="31.611500" lon="74.296549" />
      <trkpt lat="31.611519" lon="74.296570" />
      <trkpt lat="31.611715" lon="74.296738" />
      <trkpt lat="31.612021" lon="74.296949" />
      <trkpt lat="31.612252" lon="74.297136" />
      <trkpt lat="31.612882" lon="74.297479" />
      <trkpt lat="31.613632" lon="74.297917" />
      <trkpt lat="31.614358" lon="74.298292" />
      <trkpt lat="31.614844" lon="74.298536" />
      <trkpt lat="31.614943" lon="74.298622" />
      <trkpt lat="31.615012" lon="74.298717" />
      <trkpt lat="31.615138" lon="74.298609" />
      <trkpt lat="31.615559" lon="74.298264" />
      <trkpt lat="31.616817" lon="74.297230" />
      <trkpt lat="31.616882" lon="74.297174" />
      <trkpt lat="31.616965" lon="74.297093" />
      <trkpt lat="31.617060" lon="74.296960" />
      <trkpt lat="31.617281" lon="74.296568" />
      <trkpt lat="31.617329" lon="74.296361" />
      <trkpt lat="31.617336" lon="74.296041" />
      <trkpt lat="31.617363" lon="74.295388" />
      <trkpt lat="31.617364" lon="74.295166" />
      <trkpt lat="31.617363" lon="74.294880" />
      <trkpt lat="31.617386" lon="74.294560" />
      <trkpt lat="31.617408" lon="74.293038" />
      <trkpt lat="31.617412" lon="74.292472" />
      <trkpt lat="31.617420" lon="74.292093" />
      <trkpt lat="31.617449" lon="74.291648" />
      <trkpt lat="31.617415" lon="74.291362" />
      <trkpt lat="31.617358" lon="74.291079" />
      <trkpt lat="31.617330" lon="74.290849" />
      <trkpt lat="31.617289" lon="74.290810" />
      <trkpt lat="31.617237" lon="74.290749" />
      <trkpt lat="31.617200" lon="74.290656" />
      <trkpt lat="31.617187" lon="74.290578" />
      <trkpt lat="31.617185" lon="74.290495" />
      <trkpt lat="31.617191" lon="74.290400" />
      <trkpt lat="31.617214" lon="74.290317" />
      <trkpt lat="31.617230" lon="74.290259" />
      <trkpt lat="31.617253" lon="74.290214" />
      <trkpt lat="31.617307" lon="74.290157" />
      <trkpt lat="31.617645" lon="74.290004" />
      <trkpt lat="31.617781" lon="74.289997" />
      <trkpt lat="31.617894" lon="74.290004" />
      <trkpt lat="31.618004" lon="74.290014" />
      <trkpt lat="31.618139" lon="74.290028" />
      <trkpt lat="31.618226" lon="74.290039" />
      <trkpt lat="31.618376" lon="74.290018" />
      <trkpt lat="31.618565" lon="74.289983" />
      <trkpt lat="31.618749" lon="74.289949" />
      <trkpt lat="31.620316" lon="74.289662" />
      <trkpt lat="31.620460" lon="74.289629" />
      <trkpt lat="31.620620" lon="74.289595" />
      <trkpt lat="31.620671" lon="74.289584" />
    </trkseg>
  </trk>
</gpx>