<?xml version='1.0' encoding='utf-8'?>
<gpx xmlns="http://www.topografix.com/GPX/1/1" version="1.1" creator="Locus">
  <metadata>
    <name>PS Shahdara Town New Building Car Patrol</name>
  </metadata>
  <trk>
    <name>PS Shahdara Town New Building Car Patrol</name>
    <trkseg>
      <trkpt lat="31.641093" lon="74.307234" />
      <trkpt lat="31.641190" lon="74.307163" />
      <trkpt lat="31.641329" lon="74.307060" />
      <trkpt lat="31.642252" lon="74.306519" />
      <trkpt lat="31.642579" lon="74.306263" />
      <trkpt lat="31.643901" lon="74.305395" />
      <trkpt lat="31.644483" lon="74.305014" />
      <trkpt lat="31.644652" lon="74.304903" />
      <trkpt lat="31.644780" lon="74.304819" />
      <trkpt lat="31.645391" lon="74.304419" />
      <trkpt lat="31.645472" lon="74.304365" />
      <trkpt lat="31.645983" lon="74.304026" />
      <trkpt lat="31.646651" lon="74.303583" />
      <trkpt lat="31.647226" lon="74.303237" />
      <trkpt lat="31.648235" lon="74.302505" />
      <trkpt lat="31.648656" lon="74.302196" />
      <trkpt lat="31.649747" lon="74.301404" />
      <trkpt lat="31.651266" lon="74.300383" />
      <trkpt lat="31.651303" lon="74.300353" />
      <trkpt lat="31.651377" lon="74.300293" />
      <trkpt lat="31.651409" lon="74.300249" />
      <trkpt lat="31.651477" lon="74.300095" />
      <trkpt lat="31.651622" lon="74.299652" />
      <trkpt lat="31.652188" lon="74.300238" />
      <trkpt lat="31.652615" lon="74.300679" />
      <trkpt lat="31.653254" lon="74.301363" />
      <trkpt lat="31.654412" lon="74.302600" />
      <trkpt lat="31.654543" lon="74.302740" />
      <trkpt lat="31.654598" lon="74.302797" />
      <trkpt lat="31.655599" lon="74.303833" />
      <trkpt lat="31.656383" lon="74.304660" />
      <trkpt lat="31.656757" lon="74.305019" />
      <trkpt lat="31.657524" lon="74.305797" />
      <trkpt lat="31.658315" lon="74.306686" />
      <trkpt lat="31.658551" lon="74.306932" />
      <trkpt lat="31.659075" lon="74.307465" />
      <trkpt lat="31.658551" lon="74.306932" />
      <trkpt lat="31.658315" lon="74.306686" />
      <trkpt lat="31.657524" lon="74.305797" />
      <trkpt lat="31.656757" lon="74.305019" />
      <trkpt lat="31.656383" lon="74.304660" />
      <trkpt lat="31.655599" lon="74.303833" />
      <trkpt lat="31.654598" lon="74.302797" />
      <trkpt lat="31.654543" lon="74.302740" />
      <trkpt lat="31.654412" lon="74.302600" />
      <trkpt lat="31.653254" lon="74.301363" />
      <trkpt lat="31.652615" lon="74.300679" />
      <trkpt lat="31.652188" lon="74.300238" />
      <trkpt lat="31.651622" lon="74.299652" />
      <trkpt lat="31.650418" lon="74.298425" />
      <trkpt lat="31.649009" lon="74.296984" />
      <trkpt lat="31.648290" lon="74.296216" />
      <trkpt lat="31.648115" lon="74.296029" />
      <trkpt lat="31.647501" lon="74.295372" />
      <trkpt lat="31.646548" lon="74.294344" />
      <trkpt lat="31.646481" lon="74.294272" />
      <trkpt lat="31.646137" lon="74.293851" />
      <trkpt lat="31.645944" lon="74.293584" />
      <trkpt lat="31.645772" lon="74.293345" />
      <trkpt lat="31.645509" lon="74.292864" />
      <trkpt lat="31.645222" lon="74.292189" />
      <trkpt lat="31.644954" lon="74.291473" />
      <trkpt lat="31.644720" lon="74.290598" />
      <trkpt lat="31.644646" lon="74.290249" />
      <trkpt lat="31.644554" lon="74.289779" />
      <trkpt lat="31.644520" lon="74.289290" />
      <trkpt lat="31.644546" lon="74.288384" />
      <trkpt lat="31.644555" lon="74.288061" />
      <trkpt lat="31.644560" lon="74.287964" />
      <trkpt lat="31.644562" lon="74.287918" />
      <trkpt lat="31.644565" lon="74.287818" />
      <trkpt lat="31.644586" lon="74.287101" />
      <trkpt lat="31.644661" lon="74.285486" />
      <trkpt lat="31.644666" lon="74.285081" />
      <trkpt lat="31.644214" lon="74.285163" />
      <trkpt lat="31.643151" lon="74.285358" />
      <trkpt lat="31.642937" lon="74.285391" />
      <trkpt lat="31.642545" lon="74.285451" />
      <trkpt lat="31.641179" lon="74.285560" />
      <trkpt lat="31.641070" lon="74.285569" />
      <trkpt lat="31.640879" lon="74.285609" />
      <trkpt lat="31.638892" lon="74.286024" />
      <trkpt lat="31.638366" lon="74.286138" />
      <trkpt lat="31.635091" lon="74.286846" />
      <trkpt lat="31.633170" lon="74.287251" />
      <trkpt lat="31.630505" lon="74.287811" />
      <trkpt lat="31.628393" lon="74.288215" />
      <trkpt lat="31.626478" lon="74.288627" />
      <trkpt lat="31.624695" lon="74.289013" />
      <trkpt lat="31.624136" lon="74.289142" />
      <trkpt lat="31.622317" lon="74.289564" />
      <trkpt lat="31.621350" lon="74.289781" />
      <trkpt lat="31.621139" lon="74.289919" />
      <trkpt lat="31.621112" lon="74.290374" />
      <trkpt lat="31.621539" lon="74.291173" />
      <trkpt lat="31.622232" lon="74.292298" />
      <trkpt lat="31.622269" lon="74.292279" />
      <trkpt lat="31.622296" lon="74.292280" />
      <trkpt lat="31.622316" lon="74.292293" />
      <trkpt lat="31.622340" lon="74.292322" />
      <trkpt lat="31.622798" lon="74.293145" />
      <trkpt lat="31.622917" lon="74.293355" />
      <trkpt lat="31.623022" lon="74.293556" />
      <trkpt lat="31.623061" lon="74.293657" />
      <trkpt lat="31.623083" lon="74.293744" />
      <trkpt lat="31.623101" lon="74.293864" />
      <trkpt lat="31.623112" lon="74.293921" />
      <trkpt lat="31.623118" lon="74.293981" />
      <trkpt lat="31.623139" lon="74.294194" />
      <trkpt lat="31.623145" lon="74.294258" />
      <trkpt lat="31.623134" lon="74.294322" />
      <trkpt lat="31.623105" lon="74.294386" />
      <trkpt lat="31.623056" lon="74.294439" />
      <trkpt lat="31.621963" lon="74.295562" />
      <trkpt lat="31.621834" lon="74.295692" />
      <trkpt lat="31.621475" lon="74.296073" />
      <trkpt lat="31.621414" lon="74.296163" />
      <trkpt lat="31.621363" lon="74.296278" />
      <trkpt lat="31.621347" lon="74.296370" />
      <trkpt lat="31.621345" lon="74.296442" />
      <trkpt lat="31.621381" lon="74.297769" />
      <trkpt lat="31.621398" lon="74.298617" />
      <trkpt lat="31.621390" lon="74.299397" />
      <trkpt lat="31.621350" lon="74.299471" />
      <trkpt lat="31.621306" lon="74.299526" />
      <trkpt lat="31.621218" lon="74.299585" />
      <trkpt lat="31.620971" lon="74.299648" />
      <trkpt lat="31.620852" lon="74.299628" />
      <trkpt lat="31.620735" lon="74.299606" />
      <trkpt lat="31.620618" lon="74.299567" />
      <trkpt lat="31.620479" lon="74.299516" />
      <trkpt lat="31.620334" lon="74.299452" />
      <trkpt lat="31.620048" lon="74.299285" />
      <trkpt lat="31.619714" lon="74.299072" />
      <trkpt lat="31.619628" lon="74.299010" />
      <trkpt lat="31.619350" lon="74.298849" />
      <trkpt lat="31.619266" lon="74.298795" />
      <trkpt lat="31.619130" lon="74.298696" />
      <trkpt lat="31.618564" lon="74.298298" />
      <trkpt lat="31.618296" lon="74.298117" />
      <trkpt lat="31.618309" lon="74.298204" />
      <trkpt lat="31.618286" lon="74.298324" />
      <trkpt lat="31.618222" lon="74.298411" />
      <trkpt lat="31.618069" lon="74.298551" />
      <trkpt lat="31.617779" lon="74.298679" />
      <trkpt lat="31.617433" lon="74.298782" />
      <trkpt lat="31.617169" lon="74.298907" />
      <trkpt lat="31.616708" lon="74.299224" />
      <trkpt lat="31.616106" lon="74.299753" />
      <trkpt lat="31.616002" lon="74.299874" />
      <trkpt lat="31.615952" lon="74.299962" />
      <trkpt lat="31.615934" lon="74.300044" />
      <trkpt lat="31.615926" lon="74.300104" />
      <trkpt lat="31.615929" lon="74.300184" />
      <trkpt lat="31.615971" lon="74.300274" />
      <trkpt lat="31.616328" lon="74.300984" />
      <trkpt lat="31.616891" lon="74.302088" />
      <trkpt lat="31.617415" lon="74.303116" />
      <trkpt lat="31.617544" lon="74.303369" />
      <trkpt lat="31.617680" lon="74.303636" />
      <trkpt lat="31.618075" lon="74.304417" />
      <trkpt lat="31.618102" lon="74.304454" />
      <trkpt lat="31.618186" lon="74.304569" />
      <trkpt lat="31.618353" lon="74.304795" />
      <trkpt lat="31.618652" lon="74.305018" />
      <trkpt lat="31.619435" lon="74.305492" />
      <trkpt lat="31.619661" lon="74.305636" />
      <trkpt lat="31.620385" lon="74.306061" />
      <trkpt lat="31.620509" lon="74.306134" />
      <trkpt lat="31.620786" lon="74.306271" />
      <trkpt lat="31.621123" lon="74.306374" />
      <trkpt lat="31.621663" lon="74.306511" />
      <trkpt lat="31.622204" lon="74.306614" />
      <trkpt lat="31.622533" lon="74.306666" />
      <trkpt lat="31.623498" lon="74.306786" />
      <trkpt lat="31.623717" lon="74.306854" />
      <trkpt lat="31.623885" lon="74.306949" />
      <trkpt lat="31.624075" lon="74.307095" />
      <trkpt lat="31.624142" lon="74.307155" />
      <trkpt lat="31.624360" lon="74.307352" />
      <trkpt lat="31.624434" lon="74.307436" />
      <trkpt lat="31.624459" lon="74.307464" />
      <trkpt lat="31.625581" lon="74.308743" />
      <trkpt lat="31.626011" lon="74.309230" />
      <trkpt lat="31.626673" lon="74.309979" />
      <trkpt lat="31.626777" lon="74.310097" />
      <trkpt lat="31.627196" lon="74.310571" />
      <trkpt lat="31.627812" lon="74.311227" />
      <trkpt lat="31.628211" lon="74.311660" />
      <trkpt lat="31.628415" lon="74.311863" />
      <trkpt lat="31.628538" lon="74.311952" />
      <trkpt lat="31.629106" lon="74.312368" />
      <trkpt lat="31.629362" lon="74.312553" />
      <trkpt lat="31.629410" lon="74.312588" />
      <trkpt lat="31.630195" lon="74.313134" />
      <trkpt lat="31.631062" lon="74.313738" />
      <trkpt lat="31.631201" lon="74.313790" />
      <trkpt lat="31.631777" lon="74.313588" />
      <trkpt lat="31.632158" lon="74.313455" />
      <trkpt lat="31.633547" lon="74.312957" />
      <trkpt lat="31.634016" lon="74.312775" />
      <trkpt lat="31.634124" lon="74.312734" />
      <trkpt lat="31.634489" lon="74.312442" />
      <trkpt lat="31.635659" lon="74.311575" />
      <trkpt lat="31.636833" lon="74.310733" />
      <trkpt lat="31.637588" lon="74.310185" />
      <trkpt lat="31.637836" lon="74.309990" />
      <trkpt lat="31.638297" lon="74.309627" />
      <trkpt lat="31.638407" lon="74.309522" />
      <trkpt lat="31.638541" lon="74.309400" />
      <trkpt lat="31.638929" lon="74.309028" />
      <trkpt lat="31.639290" lon="74.308683" />
      <trkpt lat="31.639709" lon="74.308307" />
      <trkpt lat="31.640723" lon="74.307507" />
      <trkpt lat="31.641190" lon="74.307163" />
      <trkpt lat="31.641329" lon="74.307060" />
      <trkpt lat="31.642252" lon="74.306519" />
      <trkpt lat="31.642579" lon="74.306263" />
      <trkpt lat="31.643901" lon="74.305395" />
      <trkpt lat="31.644483" lon="74.305014" />
      <trkpt lat="31.644652" lon="74.304903" />
      <trkpt lat="31.644780" lon="74.304819" />
      <trkpt lat="31.645391" lon="74.304419" />
      <trkpt lat="31.645472" lon="74.304365" />
      <trkpt lat="31.645983" lon="74.304026" />
      <trkpt lat="31.646651" lon="74.303583" />
      <trkpt lat="31.647226" lon="74.303237" />
      <trkpt lat="31.648235" lon="74.302505" />
      <trkpt lat="31.648656" lon="74.302196" />
      <trkpt lat="31.649747" lon="74.301404" />
      <trkpt lat="31.651266" lon="74.300383" />
      <trkpt lat="31.651302" lon="74.300354" />
      <trkpt lat="31.651266" lon="74.300383" />
      <trkpt lat="31.649747" lon="74.301404" />
      <trkpt lat="31.648656" lon="74.302196" />
      <trkpt lat="31.648235" lon="74.302505" />
      <trkpt lat="31.647226" lon="74.303237" />
      <trkpt lat="31.646651" lon="74.303583" />
      <trkpt lat="31.645983" lon="74.304026" />
      <trkpt lat="31.645472" lon="74.304365" />
      <trkpt lat="31.645391" lon="74.304419" />
      <trkpt lat="31.644780" lon="74.304819" />
      <trkpt lat="31.644652" lon="74.304903" />
      <trkpt lat="31.644483" lon="74.305014" />
      <trkpt lat="31.643901" lon="74.305395" />
      <trkpt lat="31.642579" lon="74.306263" />
      <trkpt lat="31.642252" lon="74.306519" />
      <trkpt lat="31.641329" lon="74.307060" />
      <trkpt lat="31.641190" lon="74.307163" />
      <trkpt lat="31.641093" lon="74.307234" />
    </trkseg>
  </trk>
</gpx>